GLOBALSTAR M063 [+]     
1 26081U 00008A   24082.57262187 -.00000078  00000+0  68797-4 0  9995
2 26081  51.9937 220.9429 0005208 161.2802 281.4327 11.86152325104046
GLOBALSTAR M062 [-]     
1 26082U 00008B   24082.14894226  .00000028  00000+0  90038-3 0  9990
2 26082  51.9877 345.0532 0006475 225.1215 286.5075 12.43431781440385
GLOBALSTAR M060 [-]     
1 26083U 00008C   24082.58477531 -.00000076  00000+0  14648-3 0  9992
2 26083  52.0007 239.8892 0002457 288.4629 147.8525 12.17628136 97356
GLOBALSTAR M065 [+]     
1 31571U 07020A   24082.54803572 -.00000089  00000+0  81366-4 0  9991
2 31571  51.9883 160.8616 0010335  30.6424  75.6789 12.61964523776384
GLOBALSTAR M069 [+]     
1 31573U 07020C   24082.40380512 -.00000051  00000+0  29433-3 0  9997
2 31573  51.9937 117.2395 0000541 183.0161 279.0447 12.62267777777497
GLOBALSTAR M072 [+]     
1 31574U 07020D   24082.55289708 -.00000079  00000+0  13583-3 0  9998
2 31574  52.0072 212.6426 0001076 117.4954 322.7870 12.62269115775784
GLOBALSTAR M071 [P]     
1 31576U 07020F   24082.43062660 -.00000051  00000+0  29289-3 0  9993
2 31576  52.0051 122.2541 0001103 196.9914 267.3403 12.62269806438684
